{"type": "FeatureCollection", "features": [ {"type": "Feature", "properties": {"norad_id": 34611, "name": "COSMOS 2251 DEB", "group": "cosmos-2251-debris", "lat": -11.024132526398269, "lon": -102.42812625898141, "alt_km": 663.356499950045, "timestamp": "2025-12-26T11:25:45.585261+00:00", "meta": {"OBJECT_NAME": "COSMOS 2251 DEB", "OBJECT_ID": "1993-036WG", "EPOCH": "2025-12-25T05:18:21.278304", "MEAN_MOTION": 14.69716131, "ECCENTRICITY": 0.002148, "INCLINATION": 74.0531, "RA_OF_ASC_NODE": 76.8074, "ARG_OF_PERICENTER": 113.5707, "MEAN_ANOMALY": 279.3189, "EPHEMERIS_TYPE": 0, "CLASSIFICATION_TYPE": "U", "NORAD_CAT_ID": 34611, "ELEMENT_SET_NO": 999, "REV_AT_EPOCH": 88574, "BSTAR": 0.0014588, "MEAN_MOTION_DOT": 8.703e-05, "MEAN_MOTION_DDOT": 0}, "tle": {"line1": "1 34611U 93036WG  25359.22107961  .00008703  00000+0  14588-2 0  9993", "line2": "2 34611  74.0531  76.8074 0021480 113.5707 279.3189 14.69716131885748"}}, "geometry": {"type": "Point", "coordinates": [-102.42812625898141, -11.024132526398269]}}, {"type": "Feature", "properties": {"norad_id": 34613, "name": "COSMOS 2251 DEB", "group": "cosmos-2251-debris", "lat": -51.60329269183274, "lon": -127.67123373248525, "alt_km": 867.2913725458529, "timestamp": "2025-12-26T11:25:45.585270+00:00", "meta": {"OBJECT_NAME": "COSMOS 2251 DEB", "OBJECT_ID": "1993-036WJ", "EPOCH": "2025-12-24T17:45:16.187616", "MEAN_MOTION": 14.26502206, "ECCENTRICITY": 0.01107264, "INCLINATION": 73.9629, "RA_OF_ASC_NODE": 256.7621, "ARG_OF_PERICENTER": 85.5038, "MEAN_ANOMALY": 306.9262, "EPHEMERIS_TYPE": 0, "CLASSIFICATION_TYPE": "U", "NORAD_CAT_ID": 34613, "ELEMENT_SET_NO": 999, "REV_AT_EPOCH": 86634, "BSTAR": 0.0011571571, "MEAN_MOTION_DOT": 2.951e-05, "MEAN_MOTION_DDOT": 0}, "tle": {"line1": "1 34613U 93036WJ  25358.73977069  .00002951  00000+0  11572-2 0  9993", "line2": "2 34613  73.9629 256.7621 0110726  85.5038 306.9262 14.26502206866343"}}, "geometry": {"type": "Point", "coordinates": [-127.67123373248525, -51.60329269183274]}}, {"type": "Feature", "properties": {"norad_id": 34614, "name": "COSMOS 2251 DEB", "group": "cosmos-2251-debris", "lat": 32.13994968055958, "lon": 128.69571187902955, "alt_km": 966.5525916823362, "timestamp": "2025-12-26T11:25:45.585279+00:00", "meta": {"OBJECT_NAME": "COSMOS 2251 DEB", "OBJECT_ID": "1993-036WK", "EPOCH": "2025-12-24T21:37:08.839200", "MEAN_MOTION": 14.17833523, "ECCENTRICITY": 0.0196231, "INCLINATION": 73.8822, "RA_OF_ASC_NODE": 321.9977, "ARG_OF_PERICENTER": 314.2153, "MEAN_ANOMALY": 74.3764, "EPHEMERIS_TYPE": 0, "CLASSIFICATION_TYPE": "U", "NORAD_CAT_ID": 34614, "ELEMENT_SET_NO": 999, "REV_AT_EPOCH": 84939, "BSTAR": 0.0067486, "MEAN_MOTION_DOT": 0.0001667, "MEAN_MOTION_DDOT": 0}, "tle": {"line1": "1 34614U 93036WK  25358.90079675  .00016670  00000+0  67486-2 0  9997", "line2": "2 34614  73.8822 321.9977 0196231 314.2153  74.3764 14.17833523849390"}}, "geometry": {"type": "Point", "coordinates": [128.69571187902955, 32.13994968055958]}}, {"type": "Feature", "properties": {"norad_id": 34615, "name": "COSMOS 2251 DEB", "group": "cosmos-2251-debris", "lat": 39.15779936509127, "lon": -74.37981408622237, "alt_km": 1266.6049181996877, "timestamp": "2025-12-26T11:25:45.585288+00:00", "meta": {"OBJECT_NAME": "COSMOS 2251 DEB", "OBJECT_ID": "1993-036WL", "EPOCH": "2025-12-23T05:51:02.282688", "MEAN_MOTION": 13.52205597, "ECCENTRICITY": 0.04004644, "INCLINATION": 74.0046, "RA_OF_ASC_NODE": 277.2944, "ARG_OF_PERICENTER": 182.2976, "MEAN_ANOMALY": 332.6284, "EPHEMERIS_TYPE": 0, "CLASSIFICATION_TYPE": "U", "NORAD_CAT_ID": 34615, "ELEMENT_SET_NO": 999, "REV_AT_EPOCH": 82957, "BSTAR": 0.00017989399, "MEAN_MOTION_DOT": 1.76e-06, "MEAN_MOTION_DDOT": 0}, "tle": {"line1": "1 34615U 93036WL  25357.24377642  .00000176  00000+0  17989-3 0  9997", "line2": "2 34615  74.0046 277.2944 0400464 182.2976 332.6284 13.52205597829578"}}, "geometry": {"type": "Point", "coordinates": [-74.37981408622237, 39.15779936509127]}}, {"type": "Feature", "properties": {"norad_id": 34619, "name": "COSMOS 2251 DEB", "group": "cosmos-2251-debris", "lat": 65.89069734069028, "lon": -46.20222731619931, "alt_km": 732.7651947140212, "timestamp": "2025-12-26T11:25:45.585297+00:00", "meta": {"OBJECT_NAME": "COSMOS 2251 DEB", "OBJECT_ID": "1993-036WQ", "EPOCH": "2025-12-26T04:22:22.499904", "MEAN_MOTION": 14.64678138, "ECCENTRICITY": 0.0094728, "INCLINATION": 74.0429, "RA_OF_ASC_NODE": 174.1069, "ARG_OF_PERICENTER": 265.9046, "MEAN_ANOMALY": 93.129, "EPHEMERIS_TYPE": 0, "CLASSIFICATION_TYPE": "U", "NORAD_CAT_ID": 34619, "ELEMENT_SET_NO": 999, "REV_AT_EPOCH": 89495, "BSTAR": 0.00023817, "MEAN_MOTION_DOT": 1.318e-05, "MEAN_MOTION_DDOT": 0}, "tle": {"line1": "1 34619U 93036WQ  25360.18220486  .00001318  00000+0  23817-3 0  9997", "line2": "2 34619  74.0429 174.1069 0094728 265.9046  93.1290 14.64678138894958"}}, "geometry": {"type": "Point", "coordinates": [-46.20222731619931, 65.89069734069028]}}, {"type": "Feature", "properties": {"norad_id": 34620, "name": "COSMOS 2251 DEB", "group": "cosmos-2251-debris", "lat": -53.10092368145892, "lon": 171.40346267173175, "alt_km": 721.1095919218469, "timestamp": "2025-12-26T11:25:45.585305+00:00", "meta": {"OBJECT_NAME": "COSMOS 2251 DEB", "OBJECT_ID": "1993-036WR", "EPOCH": "2025-12-25T20:46:47.004384", "MEAN_MOTION": 14.49303193, "ECCENTRICITY": 0.0079449, "INCLINATION": 74.0509, "RA_OF_ASC_NODE": 194.9359, "ARG_OF_PERICENTER": 228.3871, "MEAN_ANOMALY": 131.0466, "EPHEMERIS_TYPE": 0, "CLASSIFICATION_TYPE": "U", "NORAD_CAT_ID": 34620, "ELEMENT_SET_NO": 999, "REV_AT_EPOCH": 87017, "BSTAR": 0.0023679, "MEAN_MOTION_DOT": 9.392e-05, "MEAN_MOTION_DDOT": 0}, "tle": {"line1": "1 34620U 93036WR  25359.86582181  .00009392  00000+0  23679-2 0  9990", "line2": "2 34620  74.0509 194.9359 0079449 228.3871 131.0466 14.49303193870177"}}, "geometry": {"type": "Point", "coordinates": [171.40346267173175, -53.10092368145892]}}, {"type": "Feature", "properties": {"norad_id": 34622, "name": "COSMOS 2251 DEB", "group": "cosmos-2251-debris", "lat": 38.616956200392174, "lon": -64.42254030526344, "alt_km": 755.9629532838544, "timestamp": "2025-12-26T11:25:45.585314+00:00", "meta": {"OBJECT_NAME": "COSMOS 2251 DEB", "OBJECT_ID": "1993-036WT", "EPOCH": "2025-12-24T20:40:50.649312", "MEAN_MOTION": 14.22091723, "ECCENTRICITY": 0.01049596, "INCLINATION": 74.0422, "RA_OF_ASC_NODE": 285.2613, "ARG_OF_PERICENTER": 4.8683, "MEAN_ANOMALY": 52.5969, "EPHEMERIS_TYPE": 0, "CLASSIFICATION_TYPE": "U", "NORAD_CAT_ID": 34622, "ELEMENT_SET_NO": 999, "REV_AT_EPOCH": 86632, "BSTAR": 0.00082163825, "MEAN_MOTION_DOT": 1.899e-05, "MEAN_MOTION_DDOT": 0}, "tle": {"line1": "1 34622U 93036WT  25358.86169733  .00001899  00000+0  82164-3 0  9994", "line2": "2 34622  74.0422 285.2613 0104959   4.8683  52.5969 14.22091723866324"}}, "geometry": {"type": "Point", "coordinates": [-64.42254030526344, 38.616956200392174]}}, {"type": "Feature", "properties": {"norad_id": 34626, "name": "COSMOS 2251 DEB", "group": "cosmos-2251-debris", "lat": -4.915830996182513, "lon": 118.59366610754424, "alt_km": 675.1355690060773, "timestamp": "2025-12-26T11:25:45.585323+00:00", "meta": {"OBJECT_NAME": "COSMOS 2251 DEB", "OBJECT_ID": "1993-036WX", "EPOCH": "2025-12-25T23:30:52.974720", "MEAN_MOTION": 14.72359857, "ECCENTRICITY": 0.0027234, "INCLINATION": 74.0485, "RA_OF_ASC_NODE": 298.149, "ARG_OF_PERICENTER": 22.8129, "MEAN_ANOMALY": 51.7921, "EPHEMERIS_TYPE": 0, "CLASSIFICATION_TYPE": "U", "NORAD_CAT_ID": 34626, "ELEMENT_SET_NO": 999, "REV_AT_EPOCH": 89339, "BSTAR": 0.0010738, "MEAN_MOTION_DOT": 6.81e-05, "MEAN_MOTION_DDOT": 0}, "tle": {"line1": "1 34626U 93036WX  25359.97977980  .00006810  00000+0  10738-2 0  9997", "line2": "2 34626  74.0485 298.1490 0027234  22.8129  51.7921 14.72359857893394"}}, "geometry": {"type": "Point", "coordinates": [118.59366610754424, -4.915830996182513]}}, {"type": "Feature", "properties": {"norad_id": 34634, "name": "COSMOS 2251 DEB", "group": "cosmos-2251-debris", "lat": -65.66596656969341, "lon": -131.81146228299136, "alt_km": 737.3420610283283, "timestamp": "2025-12-26T11:25:45.585332+00:00", "meta": {"OBJECT_NAME": "COSMOS 2251 DEB", "OBJECT_ID": "1993-036XF", "EPOCH": "2025-12-26T02:17:44.132352", "MEAN_MOTION": 14.55692956, "ECCENTRICITY": 0.0043654, "INCLINATION": 74.0512, "RA_OF_ASC_NODE": 9.6855, "ARG_OF_PERICENTER": 112.9861, "MEAN_ANOMALY": 304.4596, "EPHEMERIS_TYPE": 0, "CLASSIFICATION_TYPE": "U", "NORAD_CAT_ID": 34634, "ELEMENT_SET_NO": 999, "REV_AT_EPOCH": 88976, "BSTAR": 0.00029034, "MEAN_MOTION_DOT": 1.256e-05, "MEAN_MOTION_DDOT": 0}, "tle": {"line1": "1 34634U 93036XF  25360.09564968  .00001256  00000+0  29034-3 0  9998", "line2": "2 34634  74.0512   9.6855 0043654 112.9861 304.4596 14.55692956889765"}}, "geometry": {"type": "Point", "coordinates": [-131.81146228299136, -65.66596656969341]}}, {"type": "Feature", "properties": {"norad_id": 34635, "name": "COSMOS 2251 DEB", "group": "cosmos-2251-debris", "lat": 17.73662129778559, "lon": 49.41680353831196, "alt_km": 665.911424020529, "timestamp": "2025-12-26T11:25:45.585341+00:00", "meta": {"OBJECT_NAME": "COSMOS 2251 DEB", "OBJECT_ID": "1993-036XG", "EPOCH": "2025-12-25T22:32:29.783904", "MEAN_MOTION": 14.68422636, "ECCENTRICITY": 0.002762, "INCLINATION": 74.0453, "RA_OF_ASC_NODE": 45.2043, "ARG_OF_PERICENTER": 109.1526, "MEAN_ANOMALY": 312.222, "EPHEMERIS_TYPE": 0, "CLASSIFICATION_TYPE": "U", "NORAD_CAT_ID": 34635, "ELEMENT_SET_NO": 999, "REV_AT_EPOCH": 73413, "BSTAR": 0.00099638, "MEAN_MOTION_DOT": 5.772e-05, "MEAN_MOTION_DDOT": 0}, "tle": {"line1": "1 34635U 93036XG  25359.93923361  .00005772  00000+0  99638-3 0  9990", "line2": "2 34635  74.0453  45.2043 0027620 109.1526 312.2220 14.68422636734137"}}, "geometry": {"type": "Point", "coordinates": [49.41680353831196, 17.73662129778559]}}]}